[{"OBJECT_NAME":"STARLINK-36557","OBJECT_ID":"2026-012H","EPOCH":"2026-03-09T23:10:02.701920","MEAN_MOTION":15.27593449,"ECCENTRICITY":0.00012302,"INCLINATION":42.999,"RA_OF_ASC_NODE":312.8687,"ARG_OF_PERICENTER":254.5473,"MEAN_ANOMALY":105.5243,"EPHEMERIS_TYPE":0,"CLASSIFICATION_TYPE":"U","NORAD_CAT_ID":67500,"ELEMENT_SET_NO":999,"REV_AT_EPOCH":780,"BSTAR":0.0010436587,"MEAN_MOTION_DOT":0.0002858,"MEAN_MOTION_DDOT":0},{"OBJECT_NAME":"ELECTRON KICK STAGE R\/B","OBJECT_ID":"2025-061J","EPOCH":"2026-03-09T21:50:35.145600","MEAN_MOTION":15.31602074,"ECCENTRICITY":0.00402669,"INCLINATION":97.5479,"RA_OF_ASC_NODE":52.3854,"ARG_OF_PERICENTER":150.2628,"MEAN_ANOMALY":210.0914,"EPHEMERIS_TYPE":0,"CLASSIFICATION_TYPE":"U","NORAD_CAT_ID":63359,"ELEMENT_SET_NO":999,"REV_AT_EPOCH":5306,"BSTAR":0.0006963674,"MEAN_MOTION_DOT":0.00021749,"MEAN_MOTION_DDOT":0}]
